{
  "properties": [
    {
      "taxpayer": "JESSICA POSCH CHRISTOPHER POSCH",
      "street_number": "9653",
      "street_name": "Trillium Ct N",
      "city": "Champlin",
      "state": "Minnesota",
      "zip": 55316
    },
    {
      "taxpayer": "DEBORAH L SANDERS",
      "street_number": "9654",
      "street_name": "Trillium Ct N",
      "city": "Champlin",
      "state": "Minnesota",
      "zip": 55316
    },
    {
      "taxpayer": "RAJENDRA VADDADI",
      "street_number": "9661",
      "street_name": "Trillium Ct N",
      "city": "Champlin",
      "state": "Minnesota",
      "zip": 55316
    },
    {
      "taxpayer": "DAVID A JOHNSON GRETCHEN L LUESSENHEIDE",
      "street_number": "9662",
      "street_name": "Trillium Ct N",
      "city": "Champlin",
      "state": "Minnesota",
      "zip": 55316
    },
    {
      "taxpayer": "KENNETH ROY & NICOLE ROY",
      "street_number": "9669",
      "street_name": "Trillium Ct N",
      "city": "Champlin",
      "state": "Minnesota",
      "zip": 55316
    },
    {
      "taxpayer": "B B JOHNSON & A M JOHNSON",
      "street_number": "9670",
      "street_name": "Trillium Ct N",
      "city": "Champlin",
      "state": "Minnesota",
      "zip": 55316
    },
    {
      "taxpayer": "C C KALDENBERG/J M LINDEMANN",
      "street_number": "9677",
      "street_name": "Trillium Ct N",
      "city": "Champlin",
      "state": "Minnesota",
      "zip": 55316
    },
    {
      "taxpayer": "ATHUKORALA K NANDANA PERERA",
      "street_number": "9678",
      "street_name": "Trillium Ct N",
      "city": "Champlin",
      "state": "Minnesota",
      "zip": 55316
    },
    {
      "taxpayer": "MARLENE ANN MITTEN",
      "street_number": "9685",
      "street_name": "Trillium Ct N",
      "city": "Champlin",
      "state": "Minnesota",
      "zip": 55316
    },
    {
      "taxpayer": "AREN D MONSON/JAIME L MONSON",
      "street_number": "11301",
      "street_name": "Trillium Ln N",
      "city": "Champlin",
      "state": "Minnesota",
      "zip": 55316
    },
    {
      "taxpayer": "THOMAS W & MICHELLE K MURRAY",
      "street_number": "11304",
      "street_name": "Trillium Ln N",
      "city": "Champlin",
      "state": "Minnesota",
      "zip": 55316
    },
    {
      "taxpayer": "LUCIA T BEACOM",
      "street_number": "11306",
      "street_name": "Trillium Ln N",
      "city": "Champlin",
      "state": "Minnesota",
      "zip": 55316
    },
    {
      "taxpayer": "PATRICK M & PATRICIA J LAYDE",
      "street_number": "11307",
      "street_name": "Trillium Ln N",
      "city": "Champlin",
      "state": "Minnesota",
      "zip": 55316
    },
    {
      "taxpayer": "ALAN P & KATHLEEN L MOORE",
      "street_number": "11308",
      "street_name": "Trillium Ln N",
      "city": "Champlin",
      "state": "Minnesota",
      "zip": 55316
    },
    {
      "taxpayer": "DAVID A EHLERT KIMBERLY EHLERT",
      "street_number": "11313",
      "street_name": "Trillium Ln N",
      "city": "Champlin",
      "state": "Minnesota",
      "zip": 55316
    },
    {
      "taxpayer": "ALEXANDER IGNATENCO LUCIA MADAN",
      "street_number": "11314",
      "street_name": "Trillium Ln N",
      "city": "Champlin",
      "state": "Minnesota",
      "zip": 55316
    },
    {
      "taxpayer": "DIANA L SOLOMON",
      "street_number": "11319",
      "street_name": "Trillium Ln N",
      "city": "Champlin",
      "state": "Minnesota",
      "zip": 55316
    },
    {
      "taxpayer": "ADAM JOSEPH KELLERHALS",
      "street_number": "11320",
      "street_name": "Trillium Ln N",
      "city": "Champlin",
      "state": "Minnesota",
      "zip": 55316
    },
    {
      "taxpayer": "SARA J & DARREN G RECTOR",
      "street_number": "11322",
      "street_name": "Trillium Ln N",
      "city": "Champlin",
      "state": "Minnesota",
      "zip": 55316
    },
    {
      "taxpayer": "ERIC T & DEBORAH A KAUTZMAN",
      "street_number": "11324",
      "street_name": "Trillium Ln N",
      "city": "Champlin",
      "state": "Minnesota",
      "zip": 55316
    },
    {
      "taxpayer": "KEVIN J & NANCY A HILL",
      "street_number": "11325",
      "street_name": "Trillium Ln N",
      "city": "Champlin",
      "state": "Minnesota",
      "zip": 55316
    },
    {
      "taxpayer": "SHELDIN G & MICHELLE JOHNSON",
      "street_number": "11326",
      "street_name": "Trillium Ln N",
      "city": "Champlin",
      "state": "Minnesota",
      "zip": 55316
    },
    {
      "taxpayer": "KEVIN & LINDA BALL",
      "street_number": "11331",
      "street_name": "Trillium Ln N",
      "city": "Champlin",
      "state": "Minnesota",
      "zip": 55316
    },
    {
      "taxpayer": "NICHOLAS D JANKOVICH KIRSTEN E JANKOVICH",
      "street_number": "11332",
      "street_name": "Trillium Ln N",
      "city": "Champlin",
      "state": "Minnesota",
      "zip": 55316
    },
    {
      "taxpayer": "ANTHONY J KENOW",
      "street_number": "11337",
      "street_name": "Trillium Ln N",
      "city": "Champlin",
      "state": "Minnesota",
      "zip": 55316
    },
    {
      "taxpayer": "RAMON D & PATRICIA L WILEY",
      "street_number": "11338",
      "street_name": "Trillium Ln N",
      "city": "Champlin",
      "state": "Minnesota",
      "zip": 55316
    },
    {
      "taxpayer": "CHARLES L FARMER DANA L FARMER",
      "street_number": "11343",
      "street_name": "Trillium Ln N",
      "city": "Champlin",
      "state": "Minnesota",
      "zip": 55316
    },
    {
      "taxpayer": "JOHN D & JOAN M MRACEK",
      "street_number": "11344",
      "street_name": "Trillium Ln N",
      "city": "Champlin",
      "state": "Minnesota",
      "zip": 55316
    },
    {
      "taxpayer": "DAVID J & LISA M HEGEDUS",
      "street_number": "11349",
      "street_name": "Trillium Ln N",
      "city": "Champlin",
      "state": "Minnesota",
      "zip": 55316
    },
    {
      "taxpayer": "PAUL J & JODI M ZOLIK",
      "street_number": "11350",
      "street_name": "Trillium Ln N",
      "city": "Champlin",
      "state": "Minnesota",
      "zip": 55316
    },
    {
      "taxpayer": "DANIEL M MCKEON NICOLE D MCKEON",
      "street_number": "11355",
      "street_name": "Trillium Ln N",
      "city": "Champlin",
      "state": "Minnesota",
      "zip": 55316
    }
  ]
}
